[{"OBJECT_NAME":"CATSAT","OBJECT_ID":"2024-125J","EPOCH":"2026-03-09T13:24:35.272512","MEAN_MOTION":15.48684945,"ECCENTRICITY":0.00278215,"INCLINATION":97.2211,"RA_OF_ASC_NODE":280.4545,"ARG_OF_PERICENTER":188.3522,"MEAN_ANOMALY":171.727,"EPHEMERIS_TYPE":0,"CLASSIFICATION_TYPE":"U","NORAD_CAT_ID":60246,"ELEMENT_SET_NO":999,"REV_AT_EPOCH":9192,"BSTAR":0.00082380807,"MEAN_MOTION_DOT":0.00044864,"MEAN_MOTION_DDOT":0},{"OBJECT_NAME":"PSLV R\/B","OBJECT_ID":"2019-081B","EPOCH":"2026-03-09T21:41:57.489504","MEAN_MOTION":15.51275021,"ECCENTRICITY":0.00222604,"INCLINATION":97.1897,"RA_OF_ASC_NODE":108.7513,"ARG_OF_PERICENTER":106.0396,"MEAN_ANOMALY":254.331,"EPHEMERIS_TYPE":0,"CLASSIFICATION_TYPE":"U","NORAD_CAT_ID":44805,"ELEMENT_SET_NO":999,"REV_AT_EPOCH":34890,"BSTAR":0.00050111254,"MEAN_MOTION_DOT":0.00029651,"MEAN_MOTION_DDOT":0}]
